start=new Date('2022-05-13T00:00:00.000Z').valueOf();
sats=[{"REF_FRAME":"TEME","FILE":"3442534","LAUNCH_DATE":"2020-10-06","TLE_LINE2":"2 46535  53.0560 327.5154 0001462  63.7262 296.3877 15.06417701 88954","REV_AT_EPOCH":"8895","EPOCH":"2022-05-12T19:08:26.205792","DECAY_DATE":null,"PERIAPSIS":"546.147","CENTER_NAME":"EARTH","MEAN_MOTION_DOT":"0.00000087","MEAN_MOTION_DDOT":"0.0000000000000","OBJECT_ID":"2020-070D","INCLINATION":"53.0560","COUNTRY_CODE":"US","MEAN_ELEMENT_THEORY":"SGP4","RCS_SIZE":"LARGE","ARG_OF_PERICENTER":"63.7262","EPHEMERIS_TYPE":"0","MEAN_MOTION":"15.06417701","SITE":"AFETR","APOAPSIS":"548.172","NORAD_CAT_ID":"46535","ELEMENT_SET_NO":"999","RA_OF_ASC_NODE":"327.5154","GP_ID":"203390965","SEMIMAJOR_AXIS":"6925.294","OBJECT_TYPE":"PAYLOAD","OBJECT_NAME":"STARLINK-1663","TLE_LINE1":"1 46535U 20070D   22132.79752553  .00000087  00000-0  24740-4 0  9991","BSTAR":"0.00002474000000","PERIOD":"95.591","CLASSIFICATION_TYPE":"U","ECCENTRICITY":"0.00014620","TIME_SYSTEM":"UTC","MEAN_ANOMALY":"296.3877"},{"REV_AT_EPOCH":"8897","EPOCH":"2022-05-12T21:21:08.339040","TLE_LINE2":"2 46537  53.0537 327.0850 0001189  84.1528 275.9596 15.06407204 88976","LAUNCH_DATE":"2020-10-06","REF_FRAME":"TEME","FILE":"3442534","ARG_OF_PERICENTER":"84.1528","EPHEMERIS_TYPE":"0","MEAN_MOTION":"15.06407204","INCLINATION":"53.0537","OBJECT_ID":"2020-070F","COUNTRY_CODE":"US","MEAN_ELEMENT_THEORY":"SGP4","RCS_SIZE":"LARGE","MEAN_MOTION_DOT":"0.00003719","CENTER_NAME":"EARTH","MEAN_MOTION_DDOT":"0.0000000000000","DECAY_DATE":null,"PERIAPSIS":"546.368","OBJECT_NAME":"STARLINK-1672","OBJECT_TYPE":"PAYLOAD","SEMIMAJOR_AXIS":"6925.326","GP_ID":"203391214","ELEMENT_SET_NO":"999","RA_OF_ASC_NODE":"327.0850","SITE":"AFETR","APOAPSIS":"548.015","NORAD_CAT_ID":"46537","TIME_SYSTEM":"UTC","MEAN_ANOMALY":"275.9596","PERIOD":"95.592","CLASSIFICATION_TYPE":"U","ECCENTRICITY":"0.00011890","BSTAR":"0.00026836000000","TLE_LINE1":"1 46537U 20070F   22132.88967985  .00003719  00000-0  26836-3 0  9992"},{"MEAN_MOTION":"15.06405288","ARG_OF_PERICENTER":"69.9317","EPHEMERIS_TYPE":"0","MEAN_ELEMENT_THEORY":"SGP4","RCS_SIZE":"LARGE","OBJECT_ID":"2020-070G","INCLINATION":"53.0550","COUNTRY_CODE":"US","MEAN_MOTION_DDOT":"0.0000000000000","CENTER_NAME":"EARTH","MEAN_MOTION_DOT":"0.00002087","PERIAPSIS":"546.207","DECAY_DATE":null,"EPOCH":"2022-05-12T19:13:44.968224","REV_AT_EPOCH":"8895","TLE_LINE2":"2 46538  53.0550 327.4900 0001430  69.9317 290.1825 15.06405288 88950","LAUNCH_DATE":"2020-10-06","FILE":"3442534","REF_FRAME":"TEME","MEAN_ANOMALY":"290.1825","TIME_SYSTEM":"UTC","PERIOD":"95.592","ECCENTRICITY":"0.00014300","CLASSIFICATION_TYPE":"U","BSTAR":"0.00015893000000","TLE_LINE1":"1 46538U 20070G   22132.80121491  .00002087  00000-0  15893-3 0  9997","OBJECT_NAME":"STARLINK-1678","OBJECT_TYPE":"PAYLOAD","GP_ID":"203391465","SEMIMAJOR_AXIS":"6925.332","ELEMENT_SET_NO":"999","RA_OF_ASC_NODE":"327.4900","APOAPSIS":"548.188","NORAD_CAT_ID":"46538","SITE":"AFETR"},{"PERIOD":"95.592","ECCENTRICITY":"0.00013310","CLASSIFICATION_TYPE":"U","MEAN_ANOMALY":"268.8593","TIME_SYSTEM":"UTC","TLE_LINE1":"1 46541U 20070K   22132.84729042  .00001160  00000-0  96772-4 0  9998","BSTAR":"0.00009677200000","SEMIMAJOR_AXIS":"6925.352","GP_ID":"203392216","OBJECT_NAME":"STARLINK-1687","OBJECT_TYPE":"PAYLOAD","SITE":"AFETR","APOAPSIS":"548.139","NORAD_CAT_ID":"46541","ELEMENT_SET_NO":"999","RA_OF_ASC_NODE":"307.2984","INCLINATION":"53.0556","OBJECT_ID":"2020-070K","COUNTRY_CODE":"US","MEAN_ELEMENT_THEORY":"SGP4","RCS_SIZE":"LARGE","ARG_OF_PERICENTER":"91.2548","EPHEMERIS_TYPE":"0","MEAN_MOTION":"15.06398859","DECAY_DATE":null,"PERIAPSIS":"546.295","CENTER_NAME":"EARTH","MEAN_MOTION_DOT":"0.00001160","MEAN_MOTION_DDOT":"0.0000000000000","TLE_LINE2":"2 46541  53.0556 307.2984 0001331  91.2548 268.8593 15.06398859 89244","REV_AT_EPOCH":"8924","EPOCH":"2022-05-12T20:20:05.892288","REF_FRAME":"TEME","FILE":"3442534","LAUNCH_DATE":"2020-10-06"},{"TLE_LINE2":"2 46542  53.0558 327.2793 0001417  75.4210 284.6936 15.06404472 88966","EPOCH":"2022-05-12T20:22:45.472224","REV_AT_EPOCH":"8896","FILE":"3442534","REF_FRAME":"TEME","LAUNCH_DATE":"2020-10-06","RCS_SIZE":"LARGE","MEAN_ELEMENT_THEORY":"SGP4","COUNTRY_CODE":"US","INCLINATION":"53.0558","OBJECT_ID":"2020-070L","MEAN_MOTION":"15.06404472","EPHEMERIS_TYPE":"0","ARG_OF_PERICENTER":"75.4210","PERIAPSIS":"546.219","DECAY_DATE":null,"MEAN_MOTION_DDOT":"0.0000000000000","MEAN_MOTION_DOT":"0.00002381","CENTER_NAME":"EARTH","SEMIMAJOR_AXIS":"6925.335","GP_ID":"203390465","OBJECT_NAME":"STARLINK-1692","OBJECT_TYPE":"PAYLOAD","NORAD_CAT_ID":"46542","APOAPSIS":"548.181","SITE":"AFETR","RA_OF_ASC_NODE":"327.2793","ELEMENT_SET_NO":"999","CLASSIFICATION_TYPE":"U","ECCENTRICITY":"0.00014170","PERIOD":"95.592","TIME_SYSTEM":"UTC","MEAN_ANOMALY":"284.6936","TLE_LINE1":"1 46542U 20070L   22132.84913741  .00002381  00000-0  17863-3 0  9999","BSTAR":"0.00017863000000"},{"ECCENTRICITY":"0.00015590","CLASSIFICATION_TYPE":"U","PERIOD":"95.592","MEAN_ANOMALY":"301.1883","TIME_SYSTEM":"UTC","TLE_LINE1":"1 46543U 20070M   22132.83438876  .00001687  00000-0  13213-3 0  9993","BSTAR":"0.00013213000000","GP_ID":"203390715","SEMIMAJOR_AXIS":"6925.347","OBJECT_NAME":"STARLINK-1693","OBJECT_TYPE":"PAYLOAD","NORAD_CAT_ID":"46543","APOAPSIS":"548.292","SITE":"AFETR","RA_OF_ASC_NODE":"327.3381","ELEMENT_SET_NO":"999","RCS_SIZE":"LARGE","MEAN_ELEMENT_THEORY":"SGP4","COUNTRY_CODE":"US","OBJECT_ID":"2020-070M","INCLINATION":"53.0555","MEAN_MOTION":"15.06400478","EPHEMERIS_TYPE":"0","ARG_OF_PERICENTER":"58.9259","PERIAPSIS":"546.132","DECAY_DATE":null,"MEAN_MOTION_DDOT":"0.0000000000000","MEAN_MOTION_DOT":"0.00001687","CENTER_NAME":"EARTH","TLE_LINE2":"2 46543  53.0555 327.3381 0001559  58.9259 301.1883 15.06400478 88962","EPOCH":"2022-05-12T20:01:31.188864","REV_AT_EPOCH":"8896","FILE":"3442534","REF_FRAME":"TEME","LAUNCH_DATE":"2020-10-06"},{"TLE_LINE1":"1 46544U 20070N   22132.89658776  .00002226  00000-0  16824-3 0  9994","BSTAR":"0.00016824000000","PERIOD":"95.592","CLASSIFICATION_TYPE":"U","ECCENTRICITY":"0.00015860","TIME_SYSTEM":"UTC","MEAN_ANOMALY":"290.4759","APOAPSIS":"548.289","NORAD_CAT_ID":"46544","SITE":"AFETR","ELEMENT_SET_NO":"999","RA_OF_ASC_NODE":"312.0762","GP_ID":"203391966","SEMIMAJOR_AXIS":"6925.326","OBJECT_NAME":"STARLINK-1694","OBJECT_TYPE":"PAYLOAD","PERIAPSIS":"546.092","DECAY_DATE":null,"MEAN_MOTION_DDOT":"0.0000000000000","MEAN_MOTION_DOT":"0.00002226","CENTER_NAME":"EARTH","MEAN_ELEMENT_THEORY":"SGP4","RCS_SIZE":"LARGE","OBJECT_ID":"2020-070N","INCLINATION":"53.0561","COUNTRY_CODE":"US","MEAN_MOTION":"15.06407492","ARG_OF_PERICENTER":"69.6400","EPHEMERIS_TYPE":"0","FILE":"3442534","REF_FRAME":"TEME","LAUNCH_DATE":"2020-10-06","TLE_LINE2":"2 46544  53.0561 312.0762 0001586  69.6400 290.4759 15.06407492 89181","EPOCH":"2022-05-12T21:31:05.182464","REV_AT_EPOCH":"8918"},{"COUNTRY_CODE":"US","INCLINATION":"53.0544","OBJECT_ID":"2020-070P","RCS_SIZE":"LARGE","MEAN_ELEMENT_THEORY":"SGP4","EPHEMERIS_TYPE":"0","ARG_OF_PERICENTER":"72.4586","MEAN_MOTION":"15.06433156","DECAY_DATE":null,"PERIAPSIS":"545.898","MEAN_MOTION_DOT":"-0.00005859","CENTER_NAME":"EARTH","MEAN_MOTION_DDOT":"0.0000000000000","TLE_LINE2":"2 46545  53.0544 327.4918 0001753  72.4586 287.6594 15.06433156 88954","REV_AT_EPOCH":"8895","EPOCH":"2022-05-12T19:19:02.732736","REF_FRAME":"TEME","FILE":"3442534","LAUNCH_DATE":"2020-10-06","CLASSIFICATION_TYPE":"U","ECCENTRICITY":"0.00017530","PERIOD":"95.590","TIME_SYSTEM":"UTC","MEAN_ANOMALY":"287.6594","TLE_LINE1":"1 46545U 20070P   22132.80489274 -.00005859  00000-0 -37441-3 0  9996","BSTAR":"-0.00037441000000","SEMIMAJOR_AXIS":"6925.247","GP_ID":"203391716","OBJECT_NAME":"STARLINK-1696","OBJECT_TYPE":"PAYLOAD","SITE":"AFETR","NORAD_CAT_ID":"46545","APOAPSIS":"548.326","RA_OF_ASC_NODE":"327.4918","ELEMENT_SET_NO":"999"},{"LAUNCH_DATE":"2020-10-06","REF_FRAME":"TEME","FILE":"3442533","REV_AT_EPOCH":"8892","EPOCH":"2022-05-12T14:11:12.856128","TLE_LINE2":"2 46546  53.0571 328.4319 0001681  63.2430 296.8731 15.06400316 88921","CENTER_NAME":"EARTH","MEAN_MOTION_DOT":"0.00000921","MEAN_MOTION_DDOT":"0.0000000000000","DECAY_DATE":null,"PERIAPSIS":"546.048","EPHEMERIS_TYPE":"0","ARG_OF_PERICENTER":"63.2430","MEAN_MOTION":"15.06400316","COUNTRY_CODE":"US","INCLINATION":"53.0571","OBJECT_ID":"2020-070Q","RCS_SIZE":"LARGE","MEAN_ELEMENT_THEORY":"SGP4","RA_OF_ASC_NODE":"328.4319","ELEMENT_SET_NO":"999","SITE":"AFETR","NORAD_CAT_ID":"46546","APOAPSIS":"548.377","OBJECT_TYPE":"PAYLOAD","OBJECT_NAME":"STARLINK-1697","GP_ID":"203366805","SEMIMAJOR_AXIS":"6925.348","BSTAR":"0.00008073700000","TLE_LINE1":"1 46546U 20070Q   22132.59112102  .00000921  00000-0  80737-4 0  9996","MEAN_ANOMALY":"296.8731","TIME_SYSTEM":"UTC","CLASSIFICATION_TYPE":"U","ECCENTRICITY":"0.00016810","PERIOD":"95.592"},{"PERIAPSIS":"546.097","DECAY_DATE":null,"MEAN_MOTION_DDOT":"0.0000000000000","CENTER_NAME":"EARTH","MEAN_MOTION_DOT":"0.00002180","MEAN_ELEMENT_THEORY":"SGP4","RCS_SIZE":"LARGE","OBJECT_ID":"2020-070R","INCLINATION":"53.0564","COUNTRY_CODE":"US","MEAN_MOTION":"15.06399890","ARG_OF_PERICENTER":"76.8500","EPHEMERIS_TYPE":"0","FILE":"3442534","REF_FRAME":"TEME","LAUNCH_DATE":"2020-10-06","TLE_LINE2":"2 46547  53.0564 327.1119 0001613  76.8500 283.2669 15.06399890 88970","EPOCH":"2022-05-12T21:15:49.686336","REV_AT_EPOCH":"8897","TLE_LINE1":"1 46547U 20070R   22132.88599174  .00002180  00000-0  16518-3 0  9991","BSTAR":"0.00016518000000","PERIOD":"95.592","CLASSIFICATION_TYPE":"U","ECCENTRICITY":"0.00016130","TIME_SYSTEM":"UTC","MEAN_ANOMALY":"283.2669","APOAPSIS":"548.331","NORAD_CAT_ID":"46547","SITE":"AFETR","ELEMENT_SET_NO":"999","RA_OF_ASC_NODE":"327.1119","GP_ID":"203391215","SEMIMAJOR_AXIS":"6925.349","OBJECT_NAME":"STARLINK-1698","OBJECT_TYPE":"PAYLOAD"}];
